ONEWEB-0144             
1 47290U 20100AJ  25126.87016149 -.00000449  00000+0 -12826-2 0  9996
2 47290  87.8870  71.4723 0002009  90.6075 269.5284 13.12441216211278
ONEWEB-0145             
1 47291U 20100AK  25126.84098900  .00000323  00000+0  86378-3 0  9992
2 47291  87.8870  71.5040 0001957  83.9055 276.2297 13.12443199211468
ONEWEB-0146             
1 47292U 20100AL  25126.91397442  .00000475  00000+0  12849-2 0  9993
2 47292  87.8871  71.4757 0001982  70.1250 290.0092 13.12442925211381
ONEWEB-0147             
1 47293U 20100AM  25126.87988642 -.00000211  00000+0 -62095-3 0  9996
2 47293  87.8867  71.4640 0001727  84.7371 275.3954 13.12441202211278
ONEWEB-0115             
1 48042U 21025A   25127.30148944  .00000093  00000+0  21974-3 0  9995
2 48042  87.8986  40.8775 0001896  77.3181 282.8160 13.13469630200328
ONEWEB-0152             
1 48043U 21025B   25127.16267088 -.00000262  00000+0 -75357-3 0  9995
2 48043  87.8991  40.9163 0001831  75.9758 284.1575 13.13467981200265
ONEWEB-0153             
1 48044U 21025C   25127.29302704  .00000291  00000+0  76195-3 0  9996
2 48044  87.8995  40.8866 0001932  80.1919 279.9428 13.13469850200275
ONEWEB-0154             
1 48045U 21025D   25127.28963957  .00000347  00000+0  91647-3 0  9990
2 48045  87.8990  40.8885 0001830  79.2393 280.8942 13.13468243200237
